[{"CCSDS_OMM_VERS":"3.0","COMMENT":"GENERATED VIA SPACE-TRACK.ORG API","CREATION_DATE":"2026-05-16T10:38:26","ORIGINATOR":"18 SPCS","OBJECT_NAME":"THOR ABLESTAR DEB","OBJECT_ID":"1961-015HX","CENTER_NAME":"EARTH","REF_FRAME":"TEME","TIME_SYSTEM":"UTC","MEAN_ELEMENT_THEORY":"SGP4","EPOCH":"2026-05-15T21:54:12.470976","MEAN_MOTION":"13.57787720","ECCENTRICITY":"0.03107696","INCLINATION":"66.9880","RA_OF_ASC_NODE":"356.7112","ARG_OF_PERICENTER":"103.0974","MEAN_ANOMALY":"260.4965","EPHEMERIS_TYPE":"0","CLASSIFICATION_TYPE":"U","NORAD_CAT_ID":"3124","ELEMENT_SET_NO":"999","REV_AT_EPOCH":"16476","BSTAR":"0.00264153570000","MEAN_MOTION_DOT":"0.00002539","MEAN_MOTION_DDOT":"0.0000000000000","SEMIMAJOR_AXIS":"7421.880","PERIOD":"106.055","APOAPSIS":"1274.394","PERIAPSIS":"813.095","OBJECT_TYPE":"DEBRIS","RCS_SIZE":"SMALL","COUNTRY_CODE":"US","LAUNCH_DATE":"1961-06-29","SITE":"AFETR","DECAY_DATE":null,"FILE":"5196540","GP_ID":"323424212","TLE_LINE0":"0 THOR ABLESTAR DEB","TLE_LINE1":"1 03124U 61015HX  26135.91264434  .00002539  00000-0  26415-2 0  9992","TLE_LINE2":"2 03124  66.9880 356.7112 0310770 103.0974 260.4965 13.57787720164769"},{"CCSDS_OMM_VERS":"3.0","COMMENT":"GENERATED VIA SPACE-TRACK.ORG API","CREATION_DATE":"2026-05-16T19:56:29","ORIGINATOR":"18 SPCS","OBJECT_NAME":"THOR ABLESTAR DEB","OBJECT_ID":"1961-015HY","CENTER_NAME":"EARTH","REF_FRAME":"TEME","TIME_SYSTEM":"UTC","MEAN_ELEMENT_THEORY":"SGP4","EPOCH":"2026-05-16T12:15:19.707264","MEAN_MOTION":"13.27610777","ECCENTRICITY":"0.02992910","INCLINATION":"67.5576","RA_OF_ASC_NODE":"320.9714","ARG_OF_PERICENTER":"70.7120","MEAN_ANOMALY":"322.4381","EPHEMERIS_TYPE":"0","CLASSIFICATION_TYPE":"U","NORAD_CAT_ID":"3125","ELEMENT_SET_NO":"999","REV_AT_EPOCH":"14332","BSTAR":"0.00046035000000","MEAN_MOTION_DOT":"0.00000206","MEAN_MOTION_DDOT":"0.0000000000000","SEMIMAJOR_AXIS":"7533.926","PERIOD":"108.466","APOAPSIS":"1381.274","PERIAPSIS":"930.307","OBJECT_TYPE":"DEBRIS","RCS_SIZE":"SMALL","COUNTRY_CODE":"US","LAUNCH_DATE":"1961-06-29","SITE":"AFETR","DECAY_DATE":null,"FILE":"5196769","GP_ID":"323495399","TLE_LINE0":"0 THOR ABLESTAR DEB","TLE_LINE1":"1  3125U 61015HY  26136.51064476  .00000206  00000-0  46035-3 0  9994","TLE_LINE2":"2  3125  67.5576 320.9714 0299291  70.7120 322.4381 13.27610777143321"},{"CCSDS_OMM_VERS":"3.0","COMMENT":"GENERATED VIA SPACE-TRACK.ORG API","CREATION_DATE":"2026-05-16T17:43:08","ORIGINATOR":"18 SPCS","OBJECT_NAME":"DELTA 1 DEB","OBJECT_ID":"1968-002C","CENTER_NAME":"EARTH","REF_FRAME":"TEME","TIME_SYSTEM":"UTC","MEAN_ELEMENT_THEORY":"SGP4","EPOCH":"2026-05-16T14:14:45.222144","MEAN_MOTION":"12.82465657","ECCENTRICITY":"0.03220798","INCLINATION":"106.0599","RA_OF_ASC_NODE":"72.9645","ARG_OF_PERICENTER":"211.0384","MEAN_ANOMALY":"332.5346","EPHEMERIS_TYPE":"0","CLASSIFICATION_TYPE":"U","NORAD_CAT_ID":"3126","ELEMENT_SET_NO":"999","REV_AT_EPOCH":"73023","BSTAR":"0.00009299216500","MEAN_MOTION_DOT":"-0.00000050","MEAN_MOTION_DDOT":"0.0000000000000","SEMIMAJOR_AXIS":"7709.709","PERIOD":"112.284","APOAPSIS":"1579.889","PERIAPSIS":"1083.260","OBJECT_TYPE":"DEBRIS","RCS_SIZE":"SMALL","COUNTRY_CODE":"US","LAUNCH_DATE":"1968-01-11","SITE":"AFWTR","DECAY_DATE":null,"FILE":"5196581","GP_ID":"323457413","TLE_LINE0":"0 DELTA 1 DEB","TLE_LINE1":"1 03126U 68002C   26136.59357896 -.00000050  00000-0  92992-4 0  9999","TLE_LINE2":"2 03126 106.0599  72.9645 0322080 211.0384 332.5346 12.82465657730238"},{"CCSDS_OMM_VERS":"3.0","COMMENT":"GENERATED VIA SPACE-TRACK.ORG API","CREATION_DATE":"2026-05-16T10:38:26","ORIGINATOR":"18 SPCS","OBJECT_NAME":"DELTA 1 DEB","OBJECT_ID":"1968-002D","CENTER_NAME":"EARTH","REF_FRAME":"TEME","TIME_SYSTEM":"UTC","MEAN_ELEMENT_THEORY":"SGP4","EPOCH":"2026-05-15T20:46:11.023968","MEAN_MOTION":"12.84892091","ECCENTRICITY":"0.03211772","INCLINATION":"105.3203","RA_OF_ASC_NODE":"272.4710","ARG_OF_PERICENTER":"359.0738","MEAN_ANOMALY":"153.1642","EPHEMERIS_TYPE":"0","CLASSIFICATION_TYPE":"U","NORAD_CAT_ID":"3127","ELEMENT_SET_NO":"999","REV_AT_EPOCH":"73481","BSTAR":"-0.00004640613600","MEAN_MOTION_DOT":"-0.00000087","MEAN_MOTION_DDOT":"0.0000000000000","SEMIMAJOR_AXIS":"7700.000","PERIOD":"112.072","APOAPSIS":"1569.172","PERIAPSIS":"1074.559","OBJECT_TYPE":"DEBRIS","RCS_SIZE":"SMALL","COUNTRY_CODE":"US","LAUNCH_DATE":"1968-01-11","SITE":"AFWTR","DECAY_DATE":null,"FILE":"5196540","GP_ID":"323423714","TLE_LINE0":"0 DELTA 1 DEB","TLE_LINE1":"1 03127U 68002D   26135.86540537 -.00000087  00000-0 -46406-4 0  9995","TLE_LINE2":"2 03127 105.3203 272.4710 0321177 359.0738 153.1642 12.84892091734817"},{"CCSDS_OMM_VERS":"3.0","COMMENT":"GENERATED VIA SPACE-TRACK.ORG API","CREATION_DATE":"2026-05-16T17:43:08","ORIGINATOR":"18 SPCS","OBJECT_NAME":"COSMOS 203","OBJECT_ID":"1968-011A","CENTER_NAME":"EARTH","REF_FRAME":"TEME","TIME_SYSTEM":"UTC","MEAN_ELEMENT_THEORY":"SGP4","EPOCH":"2026-05-16T07:45:22.528224","MEAN_MOTION":"13.18303296","ECCENTRICITY":"0.00125374","INCLINATION":"74.0494","RA_OF_ASC_NODE":"141.5844","ARG_OF_PERICENTER":"340.6477","MEAN_ANOMALY":"31.4024","EPHEMERIS_TYPE":"0","CLASSIFICATION_TYPE":"U","NORAD_CAT_ID":"3129","ELEMENT_SET_NO":"999","REV_AT_EPOCH":"80178","BSTAR":"0.00039936786000","MEAN_MOTION_DOT":"0.00000137","MEAN_MOTION_DDOT":"0.0000000000000","SEMIMAJOR_AXIS":"7569.345","PERIOD":"109.231","APOAPSIS":"1200.700","PERIAPSIS":"1181.720","OBJECT_TYPE":"PAYLOAD","RCS_SIZE":"LARGE","COUNTRY_CODE":"CIS","LAUNCH_DATE":"1968-02-20","SITE":"PKMTR","DECAY_DATE":null,"FILE":"5196581","GP_ID":"323457414","TLE_LINE0":"0 COSMOS 203","TLE_LINE1":"1 03129U 68011A   26136.32317741  .00000137  00000-0  39937-3 0  9992","TLE_LINE2":"2 03129  74.0494 141.5844 0012537 340.6477  31.4024 13.18303296801785"},{"CCSDS_OMM_VERS":"3.0","COMMENT":"GENERATED VIA SPACE-TRACK.ORG API","CREATION_DATE":"2026-05-16T19:56:29","ORIGINATOR":"18 SPCS","OBJECT_NAME":"SL-8 R\/B","OBJECT_ID":"1968-011B","CENTER_NAME":"EARTH","REF_FRAME":"TEME","TIME_SYSTEM":"UTC","MEAN_ELEMENT_THEORY":"SGP4","EPOCH":"2026-05-16T11:05:03.027840","MEAN_MOTION":"13.18033483","ECCENTRICITY":"0.00142520","INCLINATION":"74.0481","RA_OF_ASC_NODE":"160.2093","ARG_OF_PERICENTER":"7.2185","MEAN_ANOMALY":"352.9106","EPHEMERIS_TYPE":"0","CLASSIFICATION_TYPE":"U","NORAD_CAT_ID":"3131","ELEMENT_SET_NO":"999","REV_AT_EPOCH":"80117","BSTAR":"-0.00004133200000","MEAN_MOTION_DOT":"-0.00000035","MEAN_MOTION_DDOT":"0.0000000000000","SEMIMAJOR_AXIS":"7570.378","PERIOD":"109.254","APOAPSIS":"1203.032","PERIAPSIS":"1181.453","OBJECT_TYPE":"ROCKET BODY","RCS_SIZE":"LARGE","COUNTRY_CODE":"CIS","LAUNCH_DATE":"1968-02-20","SITE":"PKMTR","DECAY_DATE":null,"FILE":"5196769","GP_ID":"323494899","TLE_LINE0":"0 SL-8 R\/B","TLE_LINE1":"1  3131U 68011B   26136.46184060 -.00000035  00000-0 -41332-4 0  9998","TLE_LINE2":"2  3131  74.0481 160.2093 0014252   7.2185 352.9106 13.18033483801179"},{"CCSDS_OMM_VERS":"3.0","COMMENT":"GENERATED VIA SPACE-TRACK.ORG API","CREATION_DATE":"2026-05-16T17:43:08","ORIGINATOR":"18 SPCS","OBJECT_NAME":"OPS 7034 (TRANSIT 18)","OBJECT_ID":"1968-012A","CENTER_NAME":"EARTH","REF_FRAME":"TEME","TIME_SYSTEM":"UTC","MEAN_ELEMENT_THEORY":"SGP4","EPOCH":"2026-05-16T15:27:27.551232","MEAN_MOTION":"13.51603513","ECCENTRICITY":"0.00757978","INCLINATION":"90.0256","RA_OF_ASC_NODE":"274.0185","ARG_OF_PERICENTER":"82.3142","MEAN_ANOMALY":"289.2185","EPHEMERIS_TYPE":"0","CLASSIFICATION_TYPE":"U","NORAD_CAT_ID":"3133","ELEMENT_SET_NO":"999","REV_AT_EPOCH":"59011","BSTAR":"0.00008999526800","MEAN_MOTION_DOT":"0.00000070","MEAN_MOTION_DDOT":"0.0000000000000","SEMIMAJOR_AXIS":"7444.502","PERIOD":"106.540","APOAPSIS":"1122.794","PERIAPSIS":"1009.939","OBJECT_TYPE":"PAYLOAD","RCS_SIZE":"LARGE","COUNTRY_CODE":"US","LAUNCH_DATE":"1968-03-02","SITE":"AFWTR","DECAY_DATE":null,"FILE":"5196581","GP_ID":"323457916","TLE_LINE0":"0 OPS 7034 (TRANSIT 18)","TLE_LINE1":"1 03133U 68012A   26136.64406888  .00000070  00000-0  89995-4 0  9990","TLE_LINE2":"2 03133  90.0256 274.0185 0075798  82.3142 289.2185 13.51603513590116"},{"CCSDS_OMM_VERS":"3.0","COMMENT":"GENERATED VIA SPACE-TRACK.ORG API","CREATION_DATE":"2026-05-16T18:56:32","ORIGINATOR":"18 SPCS","OBJECT_NAME":"SCOUT A R\/B","OBJECT_ID":"1968-012B","CENTER_NAME":"EARTH","REF_FRAME":"TEME","TIME_SYSTEM":"UTC","MEAN_ELEMENT_THEORY":"SGP4","EPOCH":"2026-05-16T08:50:08.879712","MEAN_MOTION":"13.50352851","ECCENTRICITY":"0.00760250","INCLINATION":"90.0270","RA_OF_ASC_NODE":"273.3975","ARG_OF_PERICENTER":"161.7100","MEAN_ANOMALY":"198.6813","EPHEMERIS_TYPE":"0","CLASSIFICATION_TYPE":"U","NORAD_CAT_ID":"3137","ELEMENT_SET_NO":"999","REV_AT_EPOCH":"86449","BSTAR":"0.00018499000000","MEAN_MOTION_DOT":"0.00000130","MEAN_MOTION_DDOT":"0.0000000000000","SEMIMAJOR_AXIS":"7449.098","PERIOD":"106.639","APOAPSIS":"1127.594","PERIAPSIS":"1014.331","OBJECT_TYPE":"ROCKET BODY","RCS_SIZE":"MEDIUM","COUNTRY_CODE":"US","LAUNCH_DATE":"1968-03-02","SITE":"AFWTR","DECAY_DATE":null,"FILE":"5196600","GP_ID":"323491457","TLE_LINE0":"0 SCOUT A R\/B","TLE_LINE1":"1  3137U 68012B   26136.36815833  .00000130  00000-0  18499-3 0  9994","TLE_LINE2":"2  3137  90.0270 273.3975 0076025 161.7100 198.6813 13.50352851864496"}]